{
  "norad_id": 53805,
  "name": "STARLINK-4763",
  "history": [
    {
      "epoch": "2026-03-28T16:37:14.244672",
      "apogee_km": 540.6990580684705,
      "perigee_km": 538.8007898965297,
      "latitude_deg": -7.248284735612702,
      "longitude_deg": -13.017505920026451,
      "semi_major_axis_km": 6917.8869239825,
      "eccentricity": 0.0001372,
      "inclination_deg": 53.215,
      "raan_deg": 163.9423,
      "arg_perigee_deg": 80.5733,
      "mean_anomaly_deg": 279.5414,
      "mean_motion_rev_day": 15.08837862
    }
  ]
}